GSAT0101 (PRN E11)      
1 37846U 11060A   22126.01737898 -.00000092  00000+0  00000+0 0  9992
2 37846  56.9808  22.4897 0004182  19.8182 340.2331  1.70475238 65499
GSAT0102 (PRN E12)      
1 37847U 11060B   22126.24320987 -.00000092  00000+0  00000+0 0  9995
2 37847  56.9820  22.4833 0004530 351.9245 193.3300  1.70475556 65509
GSAT0103 (PRN E19)      
1 38857U 12055A   22125.47064500  .00000060  00000+0  00000+0 0  9996
2 38857  55.1240 142.8795 0005519 268.0367  91.9379  1.70473822 59374
GSAT0104 (PRN E20)      
1 38858U 12055B   22126.02742061  .00000062  00000+0  00000+0 0  9996
2 38858  55.1251 142.8656 0003078 267.9818  92.0199  1.70474100 59383
GSAT0201 (PRN E18)      
1 40128U 14050A   22123.47243648 -.00000103  00000+0  00000+0 0  9996
2 40128  50.3115 334.0734 1629603 122.3912 254.4466  1.85519104 50384
GSAT0202 (PRN E14)      
1 40129U 14050B   22125.88959231 -.00000086  00000+0  00000+0 0  9996
2 40129  50.3359 333.0363 1626626 123.2865 253.3830  1.85519705 52596
GSAT0203 (PRN E26)      
1 40544U 15017A   22125.79823916 -.00000093  00000+0  00000+0 0  9999
2 40544  56.7758  22.5346 0001891 294.3259  65.6890  1.70475765 43577
GSAT0204 (PRN E22)      
1 40545U 15017B   22126.05091256 -.00000093  00000+0  00000+0 0  9994
2 40545  56.7817  22.5399 0001329 275.0807  84.9389  1.70475631  6627
GSAT0205 (PRN E24)      
1 40889U 15045A   22125.23136280 -.00000015  00000+0  00000+0 0  9996
2 40889  55.6530 263.1558 0004690  28.5133 331.4806  1.70473946 41377
GSAT0206 (PRN E30)      
1 40890U 15045B   22126.03872993 -.00000012  00000+0  00000+0 0  9992
2 40890  55.6509 263.1294 0002778  24.0251 335.9601  1.70473994 41419
GSAT0209 (PRN E09)      
1 41174U 15079A   22126.21344752  .00000063  00000+0  00000+0 0  9997
2 41174  55.1415 142.5624 0005472 301.4341  58.5487  1.70474823 39159
GSAT0208 (PRN E08)      
1 41175U 15079B   22124.08657878  .00000055  00000+0  00000+0 0  9998
2 41175  55.1390 142.6194 0004777 300.0565  59.9377  1.70474798 39531
GSAT0211 (PRN E02)      
1 41549U 16030A   22125.37925693 -.00000014  00000+0  00000+0 0  9993
2 41549  55.7977 263.0760 0002990 345.2018  14.7586  1.70475438 37035
GSAT0210 (PRN E01)      
1 41550U 16030B   22126.84507756 -.00000010  00000+0  00000+0 0  9990
2 41550  55.7962 263.0372 0001820 299.4177  60.5392  1.70475520 37033
GSAT0207 (PRN E07)      
1 41859U 16069A   22125.33305961  .00000058  00000+0  00000+0 0  9992
2 41859  54.8018 142.7783 0005725 290.4890  69.4875  1.70473454 33761
GSAT0212 (PRN E03)      
1 41860U 16069B   22125.18647035  .00000058  00000+0  00000+0 0  9998
2 41860  54.7996 142.7800 0004188 306.1098  53.8897  1.70473340 34018
GSAT0213 (PRN E04)      
1 41861U 16069C   22126.13849964  .00000062  00000+0  00000+0 0  9995
2 41861  54.8013 142.7587 0005526 274.2621  85.7115  1.70473526 33894
GSAT0214 (PRN E05)      
1 41862U 16069D   22125.69898399  .00000060  00000+0  00000+0 0  9990
2 41862  54.7997 142.7655 0004598 277.1055  82.8794  1.70473560 34016
GSAT0215 (PRN E21)      
1 43055U 17079A   22123.84335050 -.00000020  00000+0  00000+0 0  9990
2 43055  55.7741 262.9513 0001169 296.2926  63.6557  1.70474705 27320
GSAT0216 (PRN E25)      
1 43056U 17079B   22125.89536999 -.00000012  00000+0  00000+0 0  9994
2 43056  55.7730 262.8946 0002889 287.2050  72.7351  1.70474870 27377
GSAT0217 (PRN E27)      
1 43057U 17079C   22123.18266305 -.00000023  00000+0  00000+0 0  9998
2 43057  55.7736 262.9690 0002660 310.1919  49.7409  1.70474708 27310
GSAT0218 (PRN E31)      
1 43058U 17079D   22125.16244366 -.00000015  00000+0  00000+0 0  9993
2 43058  55.7714 262.9121 0003304 280.0649  79.8660  1.70474738 27379
GSAT0221 (PRN E15)      
1 43564U 18060A   22125.06090503 -.00000095  00000+0  00000+0 0  9995
2 43564  57.1588  22.3593 0003417 309.0894  50.9149  1.70475620 23522
GSAT0222 (PRN E33)      
1 43565U 18060B   22125.86735106 -.00000093  00000+0  00000+0 0  9997
2 43565  57.1610  22.3379 0003391 321.3055  38.7055  1.70475548 23583
GSAT0219 (PRN E36)      
1 43566U 18060C   22126.08791289 -.00000092  00000+0  00000+0 0  9996
2 43566  57.1615  22.3337 0003097 326.4686  33.5472  1.70475595 23568
GSAT0220 (PRN E13)      
1 43567U 18060D   22123.37505545 -.00000100  00000+0  00000+0 0  9994
2 43567  57.1604  22.4074 0003214 317.2433  42.7638  1.70475656 23503
GSAT0223                
1 49809U 21116A   22126.44770013 -.00000091  00000+0  00000+0 0  9999
2 49809  57.1541  22.2233 0000451  94.9091  80.8187  1.70475805  2552
GSAT0224                
1 49810U 21116B   22124.51141917 -.00000097  00000+0  00000+0 0  9998
2 49810  57.1546  22.2731 0000996  56.1808 123.6941  1.70475771  2558
